{
    "satellites": [
        {
            "name": "starlink373",
            "title": "Starlink-373 (G10-58) (new)",
            "tle": [
                "1 70404C 26070AC  26096.40256944 -.00880190  00000+0 -12611-2 0   965",
                "2 70404  53.1610 246.5604 0000567  82.0658 220.7241 16.05176237    14"
            ],
            "stdMag": 5,
            "noradId": "70404",
            "intDes": null,
            "tleUrl": "http://celestrak.org/NORAD/elements/supplemental/sup-gp.php?FILE=starlink&FORMAT=tle",
            "launchDate": "2026-04-02T11:55:10.000Z",
            "active": true,
            "batch": [
                {
                    "noradId": "70404",
                    "tle": [
                        "1 70404C 26070AC  26096.40256944 -.00880190  00000+0 -12611-2 0   965",
                        "2 70404  53.1610 246.5604 0000567  82.0658 220.7241 16.05176237    14"
                    ]
                },
                {
                    "noradId": "70406",
                    "tle": [
                        "1 70406C 26070AE  26096.35395833 -.00895230  00000+0 -12518-2 0   969",
                        "2 70406  53.1611 246.8082 0000604  83.7809 300.1573 16.05580657    14"
                    ]
                },
                {
                    "noradId": "70405",
                    "tle": [
                        "1 70405C 26070AD  26096.35048611 -.00874970  00000+0 -12741-2 0   963",
                        "2 70405  53.1609 246.8359 0000563  79.9976 279.1411 16.04907432    12"
                    ]
                },
                {
                    "noradId": "70403",
                    "tle": [
                        "1 70403C 26070AB  26096.33937500 -.00723120  00000+0 -88931-3 0   968",
                        "2 70403  53.1612 246.8795 0000356  81.2203 220.5447 16.07555778    11"
                    ]
                },
                {
                    "noradId": "70402",
                    "tle": [
                        "1 70402C 26070AA  26096.32618056 -.00705090  00000+0 -87345-3 0   962",
                        "2 70402  53.1611 246.9495 0000498  91.8765 132.8337 16.07431760    11"
                    ]
                },
                {
                    "noradId": "70401",
                    "tle": [
                        "1 70401C 26070Z   26096.33520833 -.00734440  00000+0 -91372-3 0   963",
                        "2 70401  53.1610 246.9041 0000489  76.0749 200.2623 16.07378429    13"
                    ]
                },
                {
                    "noradId": "70400",
                    "tle": [
                        "1 70400C 26070Y   26096.34493056 -.00749920  00000+0 -94035-3 0   967",
                        "2 70400  53.1612 246.8547 0000469  74.2196 257.7965 16.07261283    13"
                    ]
                },
                {
                    "noradId": "70398",
                    "tle": [
                        "1 70398C 26070W   26096.37965278 -.00753540  00000+0 -95511-3 0   969",
                        "2 70398  53.1613 246.6750 0000651  82.6570  89.7417 16.07091672    14"
                    ]
                },
                {
                    "noradId": "70399",
                    "tle": [
                        "1 70399C 26070X   26096.30395833 -.00715950  00000+0 -90758-3 0   968",
                        "2 70399  53.1611 247.0706 0000513  72.5356  21.0617 16.07070882    17"
                    ]
                },
                {
                    "noradId": "70397",
                    "tle": [
                        "1 70397C 26070V   26096.29493056 -.00706060  00000+0 -90006-3 0   968",
                        "2 70397  53.1611 247.1188 0000457  77.5332 323.2228 16.06976769    19"
                    ]
                },
                {
                    "noradId": "70396",
                    "tle": [
                        "1 70396C 26070U   26096.40951389 -.00760050  00000+0 -98462-3 0   961",
                        "2 70396  53.1613 246.5236 0000609  79.9209 263.4304 16.06746470    19"
                    ]
                },
                {
                    "noradId": "70395",
                    "tle": [
                        "1 70395C 26070T   26096.29423611 -.00712480  00000+0 -91935-3 0   961",
                        "2 70395  53.1612 247.1248 0000501  77.8914 317.6546 16.06785901    10"
                    ]
                },
                {
                    "noradId": "70394",
                    "tle": [
                        "1 70394C 26070S   26096.32618056 -.00731370  00000+0 -95412-3 0   966",
                        "2 70394  53.1610 246.9596 0000596  70.4268 149.3675 16.06619818    11"
                    ]
                },
                {
                    "noradId": "70393",
                    "tle": [
                        "1 70393C 26070R   26096.37548611 -.00767970  00000+0 -10204-2 0   969",
                        "2 70393  53.1613 246.7059 0000752  77.8167  66.0600 16.06344208    19"
                    ]
                },
                {
                    "noradId": "70392",
                    "tle": [
                        "1 70392C 26070Q   26096.37201389 -.00787520  00000+0 -10387-2 0   961",
                        "2 70392  53.1613 246.7222 0000727  69.9095  54.4957 16.06471504    10"
                    ]
                },
                {
                    "noradId": "70391",
                    "tle": [
                        "1 70391C 26070P   26096.34284722 -.00764850  00000+0 -10361-2 0   962",
                        "2 70391  53.1611 246.8793 0000486  80.2788 232.8176 16.06030733    18"
                    ]
                },
                {
                    "noradId": "70390",
                    "tle": [
                        "1 70390C 26070N   26096.39979167 -.00776130  00000+0 -10428-2 0   968",
                        "2 70390  53.1611 246.5807 0000570  76.2372 207.5763 16.06168264    10"
                    ]
                },
                {
                    "noradId": "70389",
                    "tle": [
                        "1 70389C 26070M   26096.39840278 -.00773770  00000+0 -10453-2 0   961",
                        "2 70389  53.1610 246.5891 0000495  96.0546 179.0944 16.06078658    10"
                    ]
                },
                {
                    "noradId": "70388",
                    "tle": [
                        "1 70388C 26070L   26096.40604167 -.00782980  00000+0 -10892-2 0   967",
                        "2 70388  53.1611 246.5549 0000541  85.8080 230.9335 16.05608962    18"
                    ]
                },
                {
                    "noradId": "70387",
                    "tle": [
                        "1 70387C 26070K   26096.38868056 -.00761070  00000+0 -10447-2 0   965",
                        "2 70387  53.1612 246.6424 0000607  83.9578 133.5860 16.05814718    14"
                    ]
                },
                {
                    "noradId": "70386",
                    "tle": [
                        "1 70386C 26070J   26096.37895833 -.00770890  00000+0 -10630-2 0   960",
                        "2 70386  53.1612 246.6941 0000643  83.1362  77.5807 16.05745501    11"
                    ]
                },
                {
                    "noradId": "70385",
                    "tle": [
                        "1 70385C 26070H   26096.34562500 -.00776170  00000+0 -10825-2 0   961",
                        "2 70385  53.1612 246.8700 0000531  77.0009 249.6493 16.05563179    13"
                    ]
                },
                {
                    "noradId": "70383",
                    "tle": [
                        "1 70383C 26070F   26096.37340278 -.00794090  00000+0 -11180-2 0   964",
                        "2 70383  53.1611 246.7269 0000727  78.5054  48.1607 16.05418092    14"
                    ]
                },
                {
                    "noradId": "70384",
                    "tle": [
                        "1 70384C 26070G   26096.29979167 -.00742020  00000+0 -10459-2 0   965",
                        "2 70384  53.1610 247.1110 0000621  67.4418 352.9049 16.05373701    11"
                    ]
                },
                {
                    "noradId": "70381",
                    "tle": [
                        "1 70381C 26070D   26096.29840278 -.00739650  00000+0 -10628-2 0   965",
                        "2 70381  53.1608 247.1219 0000525  71.6098 338.9289 16.05057588    11"
                    ]
                },
                {
                    "noradId": "70382",
                    "tle": [
                        "1 70382C 26070E   26096.39145833 -.00771890  00000+0 -11030-2 0   962",
                        "2 70382  53.1613 246.6356 0000707  71.9755 157.8439 16.05164167    16"
                    ]
                },
                {
                    "noradId": "70380",
                    "tle": [
                        "1 70380C 26070C   26096.40048611 -.00785370  00000+0 -11313-2 0   960",
                        "2 70380  53.1611 246.5905 0000640  71.5550 209.8061 16.05040360    13"
                    ]
                },
                {
                    "noradId": "70379",
                    "tle": [
                        "1 70379C 26070B   26096.36159722 -.00793290  00000+0 -11501-2 0   968",
                        "2 70379  53.1611 246.7942 0000625  82.6474 332.7334 16.04938259    16"
                    ]
                },
                {
                    "noradId": "70378",
                    "tle": [
                        "1 70378C 26070A   26096.36159722 -.00785360  00000+0 -11446-2 0   964",
                        "2 70378  53.1612 246.7957 0000601  81.5699 333.2333 16.04848347    16"
                    ]
                }
            ]
        }
    ],
    "config": {}
}